#aV2015  1  5  0  0  0.00000000     288 DD+AD WGS84 FIT  NGA
## 1826  86400.00000000   300.00000000 57027 0.0000000000000
+   32     1  2  3  4  5  6  7  8  9 10 11 12 13 14 15 16 17
+         18 19 20 21 22 23 24 25 26 27 28 29 30 31 32  0  0
+          0  0  0  0  0  0  0  0  0  0  0  0  0  0  0  0  0
+          0  0  0  0  0  0  0  0  0  0  0  0  0  0  0  0  0
+          0  0  0  0  0  0  0  0  0  0  0  0  0  0  0  0  0
++         2  2  2  2  2  2  2  2  2  2  2  2  2  2  2  2  2
++         2  2  2  2  2  2  2  2  2  2  2  2  2  2  2  0  0
++         0  0  0  0  0  0  0  0  0  0  0  0  0  0  0  0  0
++         0  0  0  0  0  0  0  0  0  0  0  0  0  0  0  0  0
++         0  0  0  0  0  0  0  0  0  0  0  0  0  0  0  0  0
%c cc cc ccc ccc cccc cccc cccc cccc ccccc ccccc ccccc ccccc
%c cc cc ccc ccc cccc cccc cccc cccc ccccc ccccc ccccc ccccc
%f  0.0000000  0.000000000  0.00000000000  0.000000000000000
%f  0.0000000  0.000000000  0.00000000000  0.000000000000000
%i    0    0    0    0      0      0      0      0         0
%i    0    0    0    0      0      0      0      0         0
/*      NGA, ST. LOUIS,MO.                                  
/*   EPHEMERIS COMPUTED FROM  1 DAYS OF DATA                
/*   EPOCHA SMOOTHER                                       
/* CCCCCCCCCCCCCCCCCCCCCCCCCCCCCCCCCCCCCCCCCCCCCCCCCCCCCCCCC
*  2015  1  5 18 50  0.00000000
P  1 -13538.477668  21059.497189   8564.341663    -10.474847                    
V  1   1006.707403 -11277.247171  29307.619061      0.003659                    
P  2  15617.824753   1469.649362 -21061.469883    540.106173                    
V  2  -7425.298007  26639.397985  -4063.473975      0.022764                    
P  3 -19338.190089  13040.713191 -12746.426318    128.196055                    
V  3 -16313.318470    951.738635  25668.475697      0.262948                    
P  4 -16475.214735  12486.485936  16216.239356     -5.229427                    
V  4   4148.402401 -21087.369224  20328.160690     -0.005495                    
P  5  26118.443243  -1658.627288  -5118.531645   -296.802107                    
V  5  -5661.437249   4273.748498 -30417.873333      0.049979                    
P  6   8985.098303  15797.622184 -19386.017995     43.720766                    
V  6  -8977.249543  22920.524488  14508.722898      0.096732                    
P  7  -6515.419862  25295.516922   3698.163395    428.856555                    
V  7  -4138.350880   3408.378186 -31770.407661      0.034461                    
P  8 -16364.489445   3712.365482 -20174.908813     17.032373                    
V  8  10530.619555 -24044.724693 -13441.205088      0.001701                    
P  9   2217.092937  20370.529561 -16899.891804    -46.588959                    
V  9 -15604.913458 -14840.197100 -19950.594345     -0.107053                    
P 10  15521.037412  11130.837797 -18999.775209   -157.478897                    
V 10 -22601.552202   5693.438116 -15010.747976     -0.016272                    
P 11 -12442.327192  16930.532798  15643.924531   -548.740372                    
V 11  -3622.706506 -21082.060822  19449.327241     -0.027352                    
P 12  21769.503944 -10576.481559 -10763.564410    259.079979                    
V 12  13704.400618   -297.682066  28419.536736      0.029294                    
P 13  19177.836143   8113.379064  16273.601179    -76.035815                    
V 13  10657.680568  18111.451486 -21549.517665     -0.029000                    
P 14 -15018.742021 -21947.686969   1798.161159     99.616168                    
V 14   3154.198544    116.806606  31713.745574     -0.035391                    
P 15  14152.725250  -7723.288398  21059.158000   -224.579216                    
V 15  18397.397359  19756.194284  -4783.398569     -0.022209                    
P 16 -26260.569400    159.950303  -5199.113288   -167.412207                    
V 16   6172.397028  -2406.853913 -31239.305320      0.031118                    
P 17  14404.961475  22160.269186   3939.968612   -148.255835                    
V 17  -4633.402029  -2192.693762  31323.705438     -0.022035                    
P 18   -226.766169 -16410.560950  21328.177846    370.187477                    
V 18  25704.075344  -4997.761538  -3968.595710      0.026891                    
P 19 -16835.029724    773.306547  20466.550479   -495.445471                    
V 19 -14851.657950 -21642.693052 -10861.382621     -0.015497                    
P 20 -10114.034963  16848.656259 -18042.963572    275.365654                    
V 20 -22405.098050   3990.960503  16545.275847      0.042192                    
P 21    756.759356 -24879.235184   9330.244522   -404.435057                    
V 21   6733.064190  -9493.321235 -28277.260170     -0.022914                    
P 22 -14045.297889 -11969.372278  19372.953492    304.238515                    
V 22  23361.517857  -6641.577156  12807.357771      0.037957                    
P 23  -8145.773477  13635.487554 -21100.449225    -79.598056                    
V 23 -18468.111676 -19990.281838  -6173.461530     -0.026775                    
P 24  14571.712199 -18934.481472  11438.367454    -41.282659                    
V 24  -1939.054904  14727.654809  26928.987345     -0.006973                    
P 25  10037.090433 -15302.704008 -19272.352990      5.109182                    
V 25  24058.481929  -3686.126569  15664.359029     -0.023277                    
P 26  19055.608647   7282.545912  16492.814942   -182.171113                    
V 26  11572.129891  18879.980038 -20609.384692     -0.132877                    
P 27 -20703.905698  -8241.622772  14506.655438     42.214835                    
V 27 -10756.707535 -15044.043222 -23798.440816      0.026912                    
P 28   8416.621402  13474.551366  21930.200741    410.375539                    
V 28 -26010.067651   3767.829316   7792.082606      0.025530                    
P 29   1190.599016 -18926.815161 -18579.780988    584.083182                    
V 29  15664.837577  17716.590114 -16977.977070      0.023949                    
P 30    862.672622  22712.573039  13702.023308    -86.317895                    
V 30  -8910.481012  15152.273697 -24600.188890     -0.003313                    
P 31  -9968.378761 -13120.827918 -20605.188972    326.063069                    
V 31  10155.772114 -24536.997801  10960.119002     -0.007428                    
P 32 -25777.289999   4537.921086  -2116.546463   -254.334791                    
V 32  -3150.470463  -3390.385869  31641.885510      0.086574                    
EOF
